[{"OBJECT_NAME":"ITAMSAT (IO-26)","OBJECT_ID":"1993-061D","EPOCH":"2026-03-09T18:51:40.558176","MEAN_MOTION":14.31337175,"ECCENTRICITY":0.00091856,"INCLINATION":98.6929,"RA_OF_ASC_NODE":136.1036,"ARG_OF_PERICENTER":22.8845,"MEAN_ANOMALY":337.2746,"EPHEMERIS_TYPE":0,"CLASSIFICATION_TYPE":"U","NORAD_CAT_ID":22826,"ELEMENT_SET_NO":999,"REV_AT_EPOCH":69309,"BSTAR":7.3937292e-5,"MEAN_MOTION_DOT":1.51e-6,"MEAN_MOTION_DDOT":0},{"OBJECT_NAME":"COSMOS 1066 DEB","OBJECT_ID":"1978-121D","EPOCH":"2026-03-07T00:37:41.299680","MEAN_MOTION":14.35861024,"ECCENTRICITY":0.00358186,"INCLINATION":81.2314,"RA_OF_ASC_NODE":329.5093,"ARG_OF_PERICENTER":323.4,"MEAN_ANOMALY":36.4737,"EPHEMERIS_TYPE":0,"CLASSIFICATION_TYPE":"U","NORAD_CAT_ID":45656,"ELEMENT_SET_NO":999,"REV_AT_EPOCH":30436,"BSTAR":0.002799593,"MEAN_MOTION_DOT":8.186e-5,"MEAN_MOTION_DDOT":0}]
